O3B FM5                 
1 39188U 13031A   26064.09705567 -.00000027  00000+0  00000+0 0  9992
2 39188   0.0978  13.8783 0003333 321.1674  24.9322  5.00116460231833
O3B FM4                 
1 39189U 13031B   26064.01631867 -.00000027  00000+0  00000+0 0  9996
2 39189   0.0554 345.1202 0005044   6.3683   8.4967  5.00115247231838
O3B FM2                 
1 39190U 13031C   26063.08254995 -.00000028  00000+0  00000+0 0  9998
2 39190   0.0565 339.0319 0002838   0.9260  20.0242  5.00115986231850
O3B PFM                 
1 39191U 13031D   26062.29709969 -.00000028  00000+0  00000+0 0  9997
2 39191   0.0664   7.6623 0005107 349.0732   3.2541  5.00116017231378
O3B FM3                 
1 40079U 14038A   26062.96339516 -.00000028  00000+0  00000+0 0  9993
2 40079   0.0530 353.4529 0000544  51.5720 314.9728  5.00115554207788
O3B FM7                 
1 40080U 14038B   26061.31035470 -.00000029  00000+0  00000+0 0  9996
2 40080   0.0588 348.9474 0004488 339.4059  31.6123  5.00115622212532
O3B FM6                 
1 40081U 14038C   26064.13583289 -.00000027  00000+0  00000+0 0  9994
2 40081   0.0549 351.2803 0002660 349.8083  18.8955  5.00115721212625
O3B FM8                 
1 40082U 14038D   26063.58947926 -.00000027  00000+0  00000+0 0  9995
2 40082   0.0558 350.6431 0002658 354.8269  14.5160  5.00115977212719
O3B FM10                
1 40348U 14083A   26064.01631799 -.00000027  00000+0  00000+0 0  9997
2 40348   0.0433 347.4567 0002685 354.8390  17.6889  5.00115221204686
O3B FM11                
1 40349U 14083B   26064.22893101 -.00000027  00000+0  00000+0 0  9998
2 40349   0.0567   0.4178 0003129 332.5586  27.0013  5.00115587204705
O3B FM12                
1 40350U 14083C   26062.45701119 -.00000028  00000+0  00000+0 0  9991
2 40350   0.0560 359.7796 0002643 337.6957  22.5061  5.00115945204637
O3B FM9                 
1 40351U 14083D   26064.08296451 -.00000027  00000+0  00000+0 0  9990
2 40351   0.0578   0.7720 0002734 341.9295  17.2831  5.00115917204861
LEO 1 (LEO VANTAGE 1)   
1 43113U 18004C   26064.20536924  .00005786  00000+0  40102-3 0  9999
2 43113  99.2481 328.9433 0353292  38.6276 323.9637 14.67131464422238
O3B FM15                
1 43231U 18024A   26062.95038387 -.00000028  00000+0  00000+0 0  9996
2 43231   0.0484   0.7666 0002702 337.6890  21.5262  5.00115661145769
O3B FM16                
1 43232U 18024B   26064.20210419 -.00000027  00000+0  00000+0 0  9994
2 43232   0.0451   2.7052 0002809 340.1929  17.0864  5.00115805145741
O3B FM14                
1 43233U 18024C   26064.24285575 -.00000027  00000+0  00000+0 0  9994
2 43233   0.0434   1.6419 0002846 343.1826  15.1609  5.00115697145743
O3B FM13                
1 43234U 18024D   26062.10991137 -.00000028  00000+0  00000+0 0  9997
2 43234   0.0485 331.6373 0004295 331.6147  56.6997  5.00115687145742
